NORAD_CAT_ID,OBJECT_NAME,OBJECT_TYPE,EPOCH,MEAN_MOTION,ECCENTRICITY,INCLINATION,RA_OF_ASC_NODE,ARG_OF_PERICENTER,MEAN_ANOMALY,BSTAR,MEAN_MOTION_DOT,MEAN_MOTION_DDOT,TLE_LINE0,TLE_LINE1,TLE_LINE2,SEMIMAJOR_AXIS,PERIOD,APOGEE,PERIGEE,DECAYED
51811.0,STARLINK-3569,PAYLOAD,2023-10-20 00:59:32,15.08833514,0.000171,53.2159,292.1025,89.6296,270.4893,-9.0208e-05,-1.723e-05,0.0,0 STARLINK-3569,1 51811U 22017AV  23293.04134615 -.00001723  00000-0 -90208-4 0  9999,2 51811  53.2159 292.1025 0001710  89.6296 270.4893 15.08833514 92476,6917.9,95.438,540.948,538.582,0.0
51811.0,STARLINK-3569,PAYLOAD,2023-10-20 07:21:04,15.08838532,0.0001561,53.2162,290.9133,87.3489,272.7682,5.6455e-05,6.11e-06,0.0,0 STARLINK-3569,1 51811U 22017AV  23293.30630551  .00000611  00000-0  56455-4 0  9997,2 51811  53.2162 290.9133 0001561  87.3489 272.7682 15.08838532 92419,6917.885,95.438,540.83,538.67,0.0
51811.0,STARLINK-3569,PAYLOAD,2023-10-21 07:11:52,15.0883406,0.000159,53.217,286.4538,83.7657,276.3516,0.00032839,4.941e-05,0.0,0 STARLINK-3569,1 51811U 22017AV  23294.29991435  .00004941  00000-0  32839-3 0  9996,2 51811  53.2170 286.4538 0001590  83.7657 276.3516 15.08834060 92661,6917.899,95.438,540.863,538.664,0.0
51811.0,STARLINK-3569,PAYLOAD,2023-10-21 23:05:43,15.08848664,0.0001472,53.2168,283.4799,88.2331,271.883,0.00049592,7.615e-05,0.0,0 STARLINK-3569,1 51811U 22017AV  23294.96231059  .00007615  00000-0  49592-3 0  9994,2 51811  53.2168 283.4799 0001472  88.2331 271.8830 15.08848664 92666,6917.854,95.437,540.737,538.701,0.0
51811.0,STARLINK-3569,PAYLOAD,2023-10-22 07:02:38,15.0886284,0.0001409,53.2161,281.9934,89.8934,270.2219,0.00073021,0.0001136,0.0,0 STARLINK-3569,1 51811U 22017AV  23295.29350464  .00011360  00000-0  73021-3 0  9999,2 51811  53.2161 281.9934 0001409  89.8934 270.2219 15.08862840 92812,6917.811,95.436,540.65,538.701,0.0
51811.0,STARLINK-3569,PAYLOAD,2023-10-22 16:34:57,15.08850353,0.000142,53.2156,280.2094,97.5551,262.5603,6.5469e-05,7.54e-06,0.0,0 STARLINK-3569,1 51811U 22017AV  23295.69094403  .00000754  00000-0  65469-4 0  9994,2 51811  53.2156 280.2094 0001420  97.5551 262.5603 15.08850353 92872,6917.849,95.437,540.696,538.731,0.0
51811.0,STARLINK-3569,PAYLOAD,2023-10-23 05:18:02,15.08837625,0.0001491,53.2156,277.8299,104.5303,255.5855,4.821e-06,-2.11e-06,0.0,0 STARLINK-3569,1 51811U 22017AV  23296.22086732 -.00000211  00000-0  48210-5 0  9995,2 51811  53.2156 277.8299 0001491 104.5303 255.5855 15.08837625 92950,6917.888,95.438,540.784,538.721,0.0
51811.0,STARLINK-3569,PAYLOAD,2023-10-24 08:19:36,15.08847231,0.000166,53.2162,272.7734,108.8658,251.2514,0.00062655,9.7e-05,0.0,0 STARLINK-3569,1 51811U 22017AV  23297.34695124  .00009700  00000-0  62655-3 0  9998,2 51811  53.2162 272.7734 0001660 108.8658 251.2514 15.08847231 93122,6917.858,95.437,540.872,538.575,0.0
51811.0,STARLINK-3569,PAYLOAD,2023-10-25 08:10:23,15.08844045,0.0001516,53.2163,268.312,100.6864,259.4299,0.00026383,3.914e-05,0.0,0 STARLINK-3569,1 51811U 22017AV  23298.34055287  .00003914  00000-0  26383-3 0  9998,2 51811  53.2163 268.3120 0001516 100.6864 259.4299 15.08844045 93278,6917.868,95.437,540.782,538.684,0.0
51811.0,STARLINK-3569,PAYLOAD,2023-10-26 08:01:10,15.08851096,0.000145,53.2164,263.8533,96.919,263.1968,0.00028879,4.312e-05,0.0,0 STARLINK-3569,1 51811U 22017AV  23299.33414996  .00004312  00000-0  28879-3 0  9999,2 51811  53.2164 263.8533 0001450  96.9190 263.1968 15.08851096 93328,6917.846,95.437,540.715,538.708,0.0
51811.0,STARLINK-3569,PAYLOAD,2023-10-27 04:41:11,15.0885402,0.0001319,53.2154,259.9866,94.4307,265.6836,0.00032782,4.935e-05,0.0,0 STARLINK-3569,1 51811U 22017AV  23300.19526819  .00004935  00000-0  32782-3 0  9993,2 51811  53.2154 259.9866 0001319  94.4307 265.6836 15.08854020 93555,6917.838,95.437,540.615,538.79,0.0
51811.0,STARLINK-3569,PAYLOAD,2023-10-27 14:13:30,15.08846258,0.0001308,53.2159,258.2035,92.9676,267.1466,0.00013835,1.915e-05,0.0,0 STARLINK-3569,1 51811U 22017AV  23300.59270907  .00001915  00000-0  13835-3 0  9994,2 51811  53.2159 258.2035 0001308  92.9676 267.1466 15.08846258 93516,6917.861,95.437,540.631,538.821,0.0
51811.0,STARLINK-3569,PAYLOAD,2023-10-28 06:07:21,15.08839723,0.0001398,53.2164,255.229,91.2943,268.8209,2.1487e-05,5.4e-07,0.0,0 STARLINK-3569,1 51811U 22017AV  23301.25511299  .00000054  00000-0  21487-4 0  9996,2 51811  53.2164 255.2290 0001398  91.2943 268.8209 15.08839723 93714,6917.881,95.438,540.713,538.779,0.0
51811.0,STARLINK-3569,PAYLOAD,2023-10-28 14:04:17,15.08837618,0.0001277,53.2166,253.7421,93.0767,267.0371,4.0116e-05,3.51e-06,0.0,0 STARLINK-3569,1 51811U 22017AV  23301.58631506  .00000351  00000-0  40116-4 0  9996,2 51811  53.2166 253.7421 0001277  93.0767 267.0371 15.08837618 93661,6917.888,95.438,540.636,538.869,0.0
51811.0,STARLINK-3569,PAYLOAD,2023-10-29 05:58:08,15.0886,0.0001373,53.2164,250.7695,94.4743,265.6406,0.00062,9.598e-05,0.0,0 STARLINK-3569,1 51811U 22017AV  23302.24870950  .00009598  00000-0  62000-3 0  9995,2 51811  53.2164 250.7695 0001373  94.4743 265.6406 15.08860000 93861,6917.819,95.436,540.634,538.734,0.0
51811.0,STARLINK-3569,PAYLOAD,2023-10-29 13:55:04,15.08839737,0.0001881,53.2168,249.2823,86.3148,273.806,0.00017982,2.575e-05,0.0,0 STARLINK-3569,1 51811U 22017AV  23302.57991805  .00002575  00000-0  17982-3 0  9991,2 51811  53.2168 249.2823 0001881  86.3148 273.8060 15.08839737 93819,6917.881,95.438,541.047,538.445,0.0
51811.0,STARLINK-3569,PAYLOAD,2023-10-29 20:16:37,15.0884116,0.0002132,53.2168,248.0935,80.4076,279.7157,0.00020859,3.033e-05,0.0,0 STARLINK-3569,1 51811U 22017AV  23302.84487894  .00003033  00000-0  20859-3 0  9996,2 51811  53.2168 248.0935 0002132  80.4076 279.7157 15.08841160 93854,6917.877,95.437,541.217,538.267,0.0
51811.0,STARLINK-3569,PAYLOAD,2023-10-30 13:45:51,15.08839638,0.000122,53.2176,244.8208,95.3622,264.7509,9.0209e-05,1.148e-05,0.0,0 STARLINK-3569,1 51811U 22017AV  23303.57351626  .00001148  00000-0  90209-4 0  9992,2 51811  53.2176 244.8208 0001220  95.3622 264.7509 15.08839638 93963,6917.881,95.438,540.59,538.903,0.0
51811.0,STARLINK-3569,PAYLOAD,2023-10-31 00:53:34,15.08838623,0.0001648,53.2172,242.7394,92.2378,267.8803,0.00013358,1.838e-05,0.0,0 STARLINK-3569,1 51811U 22017AV  23304.03720034  .00001838  00000-0  13358-3 0  9992,2 51811  53.2172 242.7394 0001648  92.2378 267.8803 15.08838623 94134,6917.885,95.438,540.89,538.61,0.0
51811.0,STARLINK-3569,PAYLOAD,2023-10-31 13:36:39,15.08839006,0.0001597,53.2161,240.3595,100.2017,259.9155,0.00023273,3.418e-05,0.0,0 STARLINK-3569,1 51811U 22017AV  23304.56712135  .00003418  00000-0  23273-3 0  9996,2 51811  53.2161 240.3595 0001597 100.2017 259.9155 15.08839006 94118,6917.883,95.438,540.853,538.644,0.0
51811.0,STARLINK-3569,PAYLOAD,2023-11-01 02:19:44,15.08845262,0.0001698,53.2168,237.9808,93.8501,266.2685,0.00031388,4.712e-05,0.0,0 STARLINK-3569,1 51811U 22017AV  23305.09704091  .00004712  00000-0  31388-3 0  9991,2 51811  53.2168 237.9808 0001698  93.8501 266.2685 15.08845262 94290,6917.864,95.437,540.904,538.555,0.0
51811.0,STARLINK-3569,PAYLOAD,2023-11-01 19:48:58,15.08841653,0.0001561,53.2163,234.7112,92.099,268.0181,0.00017593,2.513e-05,0.0,0 STARLINK-3569,1 51811U 22017AV  23305.82568228  .00002513  00000-0  17593-3 0  9991,2 51811  53.2163 234.7112 0001561  92.0990 268.0181 15.08841653 94404,6917.875,95.437,540.82,538.66,0.0
51811.0,STARLINK-3569,PAYLOAD,2023-11-01 22:59:44,15.08846308,0.000141,53.2164,234.1155,107.0369,253.0778,0.00025373,3.753e-05,0.0,0 STARLINK-3569,1 51811U 22017AV  23305.95815944  .00003753  00000-0  25373-3 0  9997,2 51811  53.2164 234.1155 0001410 107.0369 253.0778 15.08846308 94325,6917.861,95.437,540.702,538.751,0.0
51811.0,STARLINK-3569,PAYLOAD,2023-11-02 11:42:49,15.08850044,0.0001389,53.2169,231.738,94.3651,265.75,0.0002213,3.237e-05,0.0,0 STARLINK-3569,1 51811U 22017AV  23306.48807635  .00003237  00000-0  22130-3 0  9999,2 51811  53.2169 231.7380 0001389  94.3651 265.7500 15.08850044 94404,6917.85,95.437,540.676,538.754,0.0
51811.0,STARLINK-3569,PAYLOAD,2023-11-02 19:39:46,15.08837555,0.0001791,53.2163,230.2507,78.3163,281.803,6.7187e-06,-1.81e-06,0.0,0 STARLINK-3569,1 51811U 22017AV  23306.81928300 -.00000181  00000-0  67187-5 0  9998,2 51811  53.2163 230.2507 0001791  78.3163 281.8030 15.08837555 94555,6917.888,95.438,540.992,538.514,0.0
51811.0,STARLINK-3569,PAYLOAD,2023-11-03 11:33:37,15.08839252,0.000138,53.2162,227.2784,84.121,275.994,0.00010297,1.351e-05,0.0,0 STARLINK-3569,1 51811U 22017AV  23307.48168100  .00001351  00000-0  10297-3 0  9993,2 51811  53.2162 227.2784 0001380  84.1210 275.9940 15.08839252 94559,6917.883,95.438,540.702,538.793,0.0
51811.0,STARLINK-3569,PAYLOAD,2023-11-03 22:41:19,15.0884259,0.000134,53.216,225.1977,85.3769,274.7376,3.5708e-05,2.8e-06,0.0,0 STARLINK-3569,1 51811U 22017AV  23307.94536063  .00000280  00000-0  35708-4 0  9996,2 51811  53.2160 225.1977 0001340  85.3769 274.7376 15.08842590 94623,6917.872,95.437,540.664,538.81,0.0
51811.0,STARLINK-3569,PAYLOAD,2023-11-04 03:27:28,15.08852315,0.0001449,53.2171,224.3057,94.305,265.8108,0.00038935,5.916e-05,0.0,0 STARLINK-3569,1 51811U 22017AV  23308.14407775  .00005916  00000-0  38935-3 0  9991,2 51811  53.2171 224.3057 0001449  94.3050 265.8108 15.08852315 94752,6917.843,95.437,540.71,538.705,0.0
51811.0,STARLINK-3569,PAYLOAD,2023-11-04 11:24:24,15.08848465,0.0001338,53.2164,222.817,81.4798,278.6346,0.00028637,4.274e-05,0.0,0 STARLINK-3569,1 51811U 22017AV  23308.47527788  .00004274  00000-0  28637-3 0  9998,2 51811  53.2164 222.8170 0001338  81.4798 278.6346 15.08848465 94708,6917.855,95.437,540.645,538.794,0.0
51811.0,STARLINK-3569,PAYLOAD,2023-11-04 22:32:06,15.08838679,0.0001474,53.2171,220.7398,94.588,265.5281,0.00010625,1.403e-05,0.0,0 STARLINK-3569,1 51811U 22017AV  23308.93896335  .00001403  00000-0  10625-3 0  9995,2 51811  53.2171 220.7398 0001474  94.5880 265.5281 15.08838679 94779,6917.884,95.438,540.769,538.73,0.0
